{
    "links": {
        "self": "http://www.neowsapp.com/rest/v1/neo/3942359?api_key=iIulBulltgU6a56xZRHN4H3l9WmuAYTsLGpBGhQ2"
    },
    "id": "3942359",
    "neo_reference_id": "3942359",
    "name": "(2019 YG)",
    "designation": "2019 YG",
    "nasa_jpl_url": "http://ssd.jpl.nasa.gov/sbdb.cgi?sstr=3942359",
    "absolute_magnitude_h": 24.7,
    "estimated_diameter": {
        "kilometers": {
            "estimated_diameter_min": 0.0305179233,
            "estimated_diameter_max": 0.0682401509
        },
        "meters": {
            "estimated_diameter_min": 30.5179232594,
            "estimated_diameter_max": 68.2401509401
        },
        "miles": {
            "estimated_diameter_min": 0.0189629525,
            "estimated_diameter_max": 0.0424024508
        },
        "feet": {
            "estimated_diameter_min": 100.1244233463,
            "estimated_diameter_max": 223.8850168104
        }
    },
    "is_potentially_hazardous_asteroid": false,
    "close_approach_data": [
        {
            "close_approach_date": "2017-07-11",
            "close_approach_date_full": "2017-Jul-11 11:50",
            "epoch_date_close_approach": 1499773800000,
            "relative_velocity": {
                "kilometers_per_second": "20.8013212584",
                "kilometers_per_hour": "74884.7565303725",
                "miles_per_hour": "46530.4755229973"
            },
            "miss_distance": {
                "astronomical": "0.3568139518",
                "lunar": "138.8006272502",
                "kilometers": "53378607.175562666",
                "miles": "33167928.4816141508"
            },
            "orbiting_body": "Earth"
        },
        {
            "close_approach_date": "2019-12-13",
            "close_approach_date_full": "2019-Dec-13 12:56",
            "epoch_date_close_approach": 1576241760000,
            "relative_velocity": {
                "kilometers_per_second": "18.7980253401",
                "kilometers_per_hour": "67672.8912243452",
                "miles_per_hour": "42049.3028832605"
            },
            "miss_distance": {
                "astronomical": "0.0564740323",
                "lunar": "21.9683985647",
                "kilometers": "8448394.942391201",
                "miles": "5249589.1905165338"
            },
            "orbiting_body": "Earth"
        }
    ],
    "orbital_data": {
        "orbit_id": "8",
        "orbit_determination_date": "2019-12-29 07:26:34",
        "first_observation_date": "2019-12-17",
        "last_observation_date": "2019-12-27",
        "data_arc_in_days": 10,
        "observations_used": 49,
        "orbit_uncertainty": "8",
        "minimum_orbit_intersection": ".0540653",
        "jupiter_tisserand_invariant": "4.028",
        "epoch_osculation": "2458837.5",
        "eccentricity": ".4851369330418095",
        "semi_major_axis": "1.654538749900067",
        "inclination": "26.38220253118393",
        "ascending_node_longitude": "264.1380217073194",
        "orbital_period": "777.345056980637",
        "perihelion_distance": ".8518608951747192",
        "perihelion_argument": "114.2710981949994",
        "aphelion_distance": "2.457216604625415",
        "perihelion_time": "2458785.464529110210",
        "mean_anomaly": "24.09839665422999",
        "mean_motion": ".4631147992351192",
        "equinox": "J2000",
        "orbit_class": {
            "orbit_class_type": "APO",
            "orbit_class_description": "Near-Earth asteroid orbits which cross the Earth’s orbit similar to that of 1862 Apollo",
            "orbit_class_range": "a (semi-major axis) > 1.0 AU; q (perihelion) < 1.017 AU"
        }
    },
    "is_sentry_object": false
}